IRIDIUM 36 [-]          
1 24967U 97056C   23360.62940263  .00000717  00000+0  23755-3 0  9990
2 24967  86.3963  39.1201 0002059  89.2397 270.9036 14.36561398374877
IRIDIUM 39 [-]          
1 25042U 97069D   23360.73683631  .00001130  00000+0  30129-3 0  9997
2 25042  86.3915  81.7781 0016546 306.7376  53.2307 14.47588533371024
IRIDIUM 38 [-]          
1 25043U 97069E   23360.83104762  .00000866  00000+0  28561-3 0  9994
2 25043  86.3963  99.5139 0004029  88.6872 271.4787 14.37028636368611
IRIDIUM 42 [-]          
1 25077U 97077A   23360.81838060  .00000822  00000+0  28026-3 0  9991
2 25077  86.3969 105.0337 0002708  89.8040 270.3466 14.35325683363942
IRIDIUM 44 [-]          
1 25078U 97077B   23360.75247365  .00000821  00000+0  25908-3 0  9992
2 25078  86.3957  88.4263 0002673  48.4138 311.7289 14.39136425366238
IRIDIUM 45 [-]          
1 25104U 97082A   23360.88390995  .00009091  00000+0  56113-3 0  9990
2 25104  86.3760 303.2666 0175706 146.6145 214.6316 14.97687118370873
IRIDIUM 24 [-]          
1 25105U 97082B   23360.91516317  .00001028  00000+0  31408-3 0  9995
2 25105  86.3909 308.2443 0013495  60.1618 300.0921 14.40901091365679
IRIDIUM 51 [-]          
1 25262U 98018A   23360.91849465  .00013947  00000+0  73337-3 0  9992
2 25262  86.3919 313.5809 0162909  98.9797 262.9916 15.04683353365300
